H1 CPF 01  gfz 2022 09 07 12  7502 terrasarx 
H2 0702601  6201 31698    2022 09 07 00 59 42 2022 09 12 00 00 42   120 1 1  0 0 0
H9
10 0 59833  55422.000000  0    2069765.057   2718331.559  -5988626.075
10 0 59833  55542.000000  0    2729809.321   3132906.774  -5501526.609
10 0 59833  55662.000000  0    3349142.911   3481896.151  -4918234.420
10 0 59833  55782.000000  0    3915759.393   3759996.345  -4248861.439
10 0 59833  55902.000000  0    4418463.735   3963324.747  -3505044.998
10 0 59833  56022.000000  0    4847098.952   4089477.940  -2699753.285
10 0 59833  56142.000000  0    5192756.770   4137561.116  -1847063.587
10 0 59833  56262.000000  0    5447968.671   4108188.026   -961917.438
10 0 59833  56382.000000  0    5606871.433   4003450.115    -59856.007
10 0 59833  56502.000000  0    5665342.964   3826856.055    843257.720
10 0 59833  56622.000000  0    5621105.270   3583241.775   1731525.732
10 0 59833  56742.000000  0    5473789.798   3278652.597   2589303.772
10 0 59833  56862.000000  0    5224963.829   2920202.196   3401485.680
10 0 59833  56982.000000  0    4878117.189   2515910.647   4153777.093
10 0 59833  57102.000000  0    4438608.870   2074525.252   4832950.690
10 0 59833  57222.000000  0    3913579.782   1605331.940   5427078.899
10 0 59833  57342.000000  0    3311828.548   1117959.423   5925744.231
10 0 59833  57462.000000  0    2643654.860    622179.735   6320216.335
10 0 59833  57582.000000  0    1920677.510    127712.734   6603596.960
10 0 59833  57702.000000  0    1155629.707   -355962.851   6770935.439
10 0 59833  57822.000000  0     362132.217   -819790.691   6819311.562
10 0 59833  57942.000000  0    -445550.442  -1255305.936   6747882.347
10 0 59833  58062.000000  0   -1252766.050  -1654789.333   6557895.186
10 0 59833  58182.000000  0   -2044739.286  -2011404.025   6252665.945
10 0 59833  58302.000000  0   -2806839.695  -2319311.826   5837524.917
10 0 59833  58422.000000  0   -3524852.922  -2573770.456   5319732.570
10 0 59833  58542.000000  0   -4185251.280  -2771209.212   4708358.372
10 0 59833  58662.000000  0   -4775453.683  -2909279.799   4014125.963
10 0 59833  58782.000000  0   -5284071.453  -2986881.364   3249228.392
10 0 59833  58902.000000  0   -5701135.235  -3004159.998   2427116.401
10 0 59833  59022.000000  0   -6018298.897  -2962483.212   1562261.268
10 0 59833  59142.000000  0   -6229013.527  -2864388.873    669894.646
10 0 59833  59262.000000  0   -6328665.889  -2713507.961   -234266.991
10 0 59833  59382.000000  0   -6314679.796  -2514465.374  -1134307.577
10 0 59833  59502.000000  0   -6186575.301  -2272759.657  -2014401.929
10 0 59833  59622.000000  0   -5945984.027  -1994625.796  -2859101.653
10 0 59833  59742.000000  0   -5596623.250  -1686884.991  -3653611.126
10 0 59833  59862.000000  0   -5144228.809  -1356785.207  -4384048.572
10 0 59833  59982.000000  0   -4596449.772  -1011836.670  -5037686.764
10 0 59833  60102.000000  0   -3962707.442   -659645.823  -5603169.901
10 0 59833  60222.000000  0   -3254022.390   -307752.137  -6070701.946
10 0 59833  60342.000000  0   -2482815.173     36528.756  -6432204.924
10 0 59833  60462.000000  0   -1662684.776    366252.088  -6681446.763
10 0 59833  60582.000000  0    -808168.286    674978.437  -6814137.709
10 0 59833  60702.000000  0      65512.828    956895.433  -6827995.587
10 0 59833  60822.000000  0     942716.704   1206923.618  -6722780.132
10 0 59833  60942.000000  0    1807654.177   1420805.186  -6500299.465
10 0 59833  61062.000000  0    2644667.722   1595176.099  -6164382.680
10 0 59833  61182.000000  0    3438510.601   1727618.620  -5720820.308
10 0 59833  61302.000000  0    4174621.211   1816693.716  -5177273.579
10 0 59833  61422.000000  0    4839391.122   1861953.931  -4543154.400
10 0 59833  61542.000000  0    5420422.005   1863935.780  -3829472.966
10 0 59833  61662.000000  0    5906764.135   1824130.927  -3048655.528
10 0 59833  61782.000000  0    6289132.935   1744936.985  -2214335.552
10 0 59833  61902.000000  0    6560098.641   1629589.081  -1341118.472
10 0 59833  62022.000000  0    6714241.698   1482072.470   -444324.580
10 0 59833  62142.000000  0    6748270.344   1307017.965    460284.946
10 0 59833  62262.000000  0    6661094.602   1109583.755   1356791.760
10 0 59833  62382.000000  0    6453859.562    895326.132   2229408.133
10 0 59833  62502.000000  0    6129931.720    670061.138   3062765.206
10 0 59833  62622.000000  0    5694840.316    439722.173   3842190.956
10 0 59833  62742.000000  0    5156174.820    210216.808   4553974.416
10 0 59833  62862.000000  0    4523443.572    -12712.338   5185608.123
10 0 59833  62982.000000  0    3807896.062   -223621.885   5726008.824
10 0 59833  63102.000000  0    3022312.141   -417491.833   6165707.771
10 0 59833  63222.000000  0    2180766.514   -589836.800   6497010.874
10 0 59833  63342.000000  0    1298371.957   -736803.773   6714127.783
10 0 59833  63462.000000  0     391004.101   -855254.212   6813268.377
10 0 59833  63582.000000  0    -524985.921   -942828.426   6792703.614
10 0 59833  63702.000000  0   -1433065.304   -997991.937   6652792.813
10 0 59833  63822.000000  0   -2316816.522  -1020062.369   6395977.128
10 0 59833  63942.000000  0   -3160232.231  -1009216.447   6026739.660
10 0 59833  64062.000000  0   -3948006.137   -966477.379   5551534.056
10 0 59833  64182.000000  0   -4665815.523   -893683.809   4978678.539
10 0 59833  64302.000000  0   -5300588.692   -793439.728   4318215.777
10 0 59833  64422.000000  0   -5840751.237   -669046.176   3581740.458
10 0 59833  64542.000000  0   -6276445.535   -524416.199   2782197.931
10 0 59833  64662.000000  0   -6599720.825   -363974.883   1933657.872
10 0 59833  64782.000000  0   -6804688.984   -192546.343   1051063.224
10 0 59833  64902.000000  0   -6887638.904    -15231.363    149960.094
10 0 59833  65022.000000  0   -6847107.307    162721.990   -753784.588
10 0 59833  65142.000000  0   -6683903.746    336051.633  -1644271.848
10 0 59833  65262.000000  0   -6401089.420    499614.295  -2505857.634
10 0 59833  65382.000000  0   -6003913.876    648515.107  -3323434.124
10 0 59833  65502.000000  0   -5499705.850    778230.951  -4082700.280
10 0 59833  65622.000000  0   -4897724.433    884724.147  -4770411.354
10 0 59833  65742.000000  0   -4208975.967    964543.535  -5374605.805
10 0 59833  65862.000000  0   -3446001.502   1014911.009  -5884805.177
10 0 59833  65982.000000  0   -2622640.089   1033791.421  -6292185.453
10 0 59833  66102.000000  0   -1753773.688   1019945.155  -6589717.796
10 0 59833  66222.000000  0    -855057.214    972963.781  -6772278.914
10 0 59833  66342.000000  0      57360.219    893286.598  -6836728.448
10 0 59833  66462.000000  0     967117.667    782198.904  -6781956.919
10 0 59833  66582.000000  0    1857928.776    641811.575  -6608905.454
10 0 59833  66702.000000  0    2713867.782    475022.278  -6320551.189
10 0 59833  66822.000000  0    3519649.276    285459.382  -5921861.441
10 0 59833  66942.000000  0    4260898.166     77408.143  -5419716.025
10 0 59833  67062.000000  0    4924406.031   -144279.040  -4822799.939
10 0 59833  67182.000000  0    5498372.254   -374286.787  -4141465.050
10 0 59833  67302.000000  0    5972622.157   -606954.231  -3387560.014
10 0 59833  67422.000000  0    6338798.005   -836403.302  -2574232.359
10 0 59833  67542.000000  0    6590519.145  -1056675.551  -1715704.020
10 0 59833  67662.000000  0    6723505.821  -1261873.453   -827023.007
10 0 59833  67782.000000  0    6735662.514  -1446303.255     76203.212
10 0 59833  67902.000000  0    6627119.212  -1604615.816    978087.688
10 0 59833  68022.000000  0    6400227.203  -1731941.807   1862751.960
10 0 59833  68142.000000  0    6059510.516  -1824017.904   2714614.564
10 0 59833  68262.000000  0    5611572.745  -1877299.330   3518674.650
10 0 59833  68382.000000  0    5064962.139  -1889057.375   4260782.278
10 0 59833  68502.000000  0    4429999.715  -1857458.766   4927890.425
10 0 59833  68622.000000  0    3718576.083  -1781624.632   5508284.949
10 0 59833  68742.000000  0    2943919.680  -1661669.166   5991789.428
10 0 59833  68862.000000  0    2120342.320  -1498716.467   6369938.362
10 0 59833  68982.000000  0    1262969.705  -1294896.094   6636119.592
10 0 59833  69102.000000  0     387459.763  -1053316.728   6785684.320
10 0 59833  69222.000000  0    -490284.895   -778018.173   6816022.561
10 0 59833  69342.000000  0   -1354404.919   -473903.523   6726604.696
10 0 59833  69462.000000  0   -2189369.254   -146652.116   6518990.006
10 0 59833  69582.000000  0   -2980252.964    197385.864   6196801.625
10 0 59833  69702.000000  0   -3713004.628    551311.234   5765668.320
10 0 59833  69822.000000  0   -4374699.536    907811.923   5233132.355
10 0 59833  69942.000000  0   -4953773.420   1259311.522   4608523.559
10 0 59833  70062.000000  0   -5440232.533   1598127.998   3902801.010
10 0 59833  70182.000000  0   -5825834.428   1916638.536   3128363.574
10 0 59833  70302.000000  0   -6104236.204   2207447.300   2298833.436
10 0 59833  70422.000000  0   -6271107.389   2463552.236   1428815.157
10 0 59833  70542.000000  0   -6324203.799   2678507.237    533633.272
10 0 59833  70662.000000  0   -6263398.352   2846574.577   -370945.625
10 0 59833  70782.000000  0   -6090669.461   2962863.807  -1268999.325
10 0 59833  70902.000000  0   -5810046.739   3023453.630  -2144739.078
10 0 59833  71022.000000  0   -5427515.437   3025494.189  -2982795.831
10 0 59833  71142.000000  0   -4950881.548   2967285.867  -3768495.301
10 0 59833  71262.000000  0   -4389603.299   2848334.040  -4488116.433
10 0 59833  71382.000000  0   -3754593.463   2669378.564  -5129128.203
10 0 59833  71502.000000  0   -3057998.209   2432397.779  -5680400.556
10 0 59833  71622.000000  0   -2312959.508   2140588.573  -6132387.790
10 0 59833  71742.000000  0   -1533363.390   1798322.176  -6477284.062
10 0 59833  71862.000000  0    -733580.262   1411076.555  -6709145.633
99
